{"fetched_at":"2026-03-29T02:12:04Z","count":15717,"tles":[{"name":"STARLINK-32857","line1":"1 62949U 25029B   26087.43861803  .00018506  00000+0  63523-3 0  9995","line2":"2 62949  53.1585 142.8590 0001247  84.1673 275.9470 15.30208489 64263","category":"Starlink"}]}