{
  "norad_id": 62949,
  "name": "STARLINK-32857",
  "history": [
    {
      "epoch": "2026-03-28T10:31:36.597792Z",
      "apogee_km": 476.0448810211392,
      "perigee_km": 474.3345648041686,
      "latitude_deg": 5.7306080330951265e-06,
      "longitude_deg": 159.09745606546946,
      "height_km": 476.0007754251575,
      "semi_major_axis_km": 6853.326722912654,
      "eccentricity": 0.00012478,
      "inclination_deg": 53.1585,
      "raan_deg": 142.859,
      "arg_perigee_deg": 84.1673,
      "mean_anomaly_deg": 275.947,
      "mean_motion_rev_day": 15.30208489
    }
  ]
}